0 COSMOS 1375 DEB
1 17802U 82055AU  13283.43819744  .00000169  00000-0  26087-3 0  6141
2 17802 065.8349 069.5773 0030508 064.8792 330.8805 13.74983189400974
0 COSMOS 1375 DEB
1 17802U 82055AU  13285.47992675  .00000142  00000-0  23201-3 0  6159
2 17802 065.8354 064.5333 0030521 063.5848 357.6073 13.74984592401255
0 COSMOS 1375 DEB
1 17802U 82055AU  13288.38348303  .00000253  00000-0  34826-3 0  6164
2 17802 065.8360 057.3605 0030577 061.6894 330.5165 13.74986215401655
0 COSMOS 1375 DEB
1 17802U 82055AU  13292.46475536  .00000254  00000-0  34851-3 0  6177
2 17802 065.8363 047.2791 0030661 058.9586 013.3426 13.74988514402216
0 COSMOS 1375 DEB
1 17802U 82055AU  13294.73561878  .00000266  00000-0  36198-3 0  6184
2 17802 065.8363 041.6696 0030727 057.4471 094.4186 13.74990258402523
